{"type": "FeatureCollection", "features": [ {"type": "Feature", "properties": {"norad_id": 57401, "name": "TIANMU-1 09", "group": "weather", "lat": 37.82200483820581, "lon": -125.25512860401155, "alt_km": 478.6551924136056, "timestamp": "2025-12-26T04:40:05.430293+00:00", "meta": {"OBJECT_NAME": "TIANMU-1 09", "OBJECT_ID": "2023-101C", "EPOCH": "2025-12-25T21:45:53.932608", "MEAN_MOTION": 15.28275024, "ECCENTRICITY": 0.0006168, "INCLINATION": 97.2802, "RA_OF_ASC_NODE": 48.7682, "ARG_OF_PERICENTER": 47.4563, "MEAN_ANOMALY": 312.7197, "EPHEMERIS_TYPE": 0, "CLASSIFICATION_TYPE": "U", "NORAD_CAT_ID": 57401, "ELEMENT_SET_NO": 999, "REV_AT_EPOCH": 13516, "BSTAR": 0.00029671945, "MEAN_MOTION_DOT": 8.106e-05, "MEAN_MOTION_DDOT": 0}, "tle": {"line1": "1 57401U 23101C   25359.90687422  .00008106  00000+0  29672-3 0  9999", "line2": "2 57401  97.2802  48.7682 0006168  47.4563 312.7197 15.28275024135164"}}, "geometry": {"type": "Point", "coordinates": [-125.25512860401155, 37.82200483820581]}}, {"type": "Feature", "properties": {"norad_id": 57402, "name": "TIANMU-1 10", "group": "weather", "lat": -46.51023790978644, "lon": 57.667051663023166, "alt_km": 487.88586898025005, "timestamp": "2025-12-26T04:40:05.430309+00:00", "meta": {"OBJECT_NAME": "TIANMU-1 10", "OBJECT_ID": "2023-101D", "EPOCH": "2025-12-25T22:35:15.749664", "MEAN_MOTION": 15.28267249, "ECCENTRICITY": 0.00078716, "INCLINATION": 97.2881, "RA_OF_ASC_NODE": 49.6656, "ARG_OF_PERICENTER": 44.6501, "MEAN_ANOMALY": 315.5372, "EPHEMERIS_TYPE": 0, "CLASSIFICATION_TYPE": "U", "NORAD_CAT_ID": 57402, "ELEMENT_SET_NO": 999, "REV_AT_EPOCH": 13516, "BSTAR": 0.00028046988, "MEAN_MOTION_DOT": 7.658e-05, "MEAN_MOTION_DDOT": 0}, "tle": {"line1": "1 57402U 23101D   25359.94115451  .00007658  00000+0  28047-3 0  9998", "line2": "2 57402  97.2881  49.6656 0007871  44.6501 315.5372 15.28267249135162"}}, "geometry": {"type": "Point", "coordinates": [57.667051663023166, -46.51023790978644]}}, {"type": "Feature", "properties": {"norad_id": 57490, "name": "FENGYUN 3F", "group": "weather", "lat": 16.897810301928576, "lon": 65.60160118591675, "alt_km": 826.2864579855186, "timestamp": "2025-12-26T04:40:05.430345+00:00", "meta": {"OBJECT_NAME": "FENGYUN 3F", "OBJECT_ID": "2023-111A", "EPOCH": "2025-12-25T21:49:22.827936", "MEAN_MOTION": 14.19896976, "ECCENTRICITY": 8.468e-05, "INCLINATION": 98.7066, "RA_OF_ASC_NODE": 67.9892, "ARG_OF_PERICENTER": 117.7964, "MEAN_ANOMALY": 242.3299, "EPHEMERIS_TYPE": 0, "CLASSIFICATION_TYPE": "U", "NORAD_CAT_ID": 57490, "ELEMENT_SET_NO": 999, "REV_AT_EPOCH": 12427, "BSTAR": 5.7408698e-05, "MEAN_MOTION_DOT": 7.8e-07, "MEAN_MOTION_DDOT": 0}, "tle": {"line1": "1 57490U 23111A   25359.90929199  .00000078  00000+0  57409-4 0  9998", "line2": "2 57490  98.7066  67.9892 0000846 117.7964 242.3299 14.19896976124274"}}, "geometry": {"type": "Point", "coordinates": [65.60160118591675, 16.897810301928576]}}, {"type": "Feature", "properties": {"norad_id": 58584, "name": "ARKTIKA-M 2", "group": "weather", "lat": 37.90288020982012, "lon": -29.737036912812844, "alt_km": 19413.69467526134, "timestamp": "2025-12-26T04:40:05.430371+00:00", "meta": {"OBJECT_NAME": "ARKTIKA-M 2", "OBJECT_ID": "2023-198A", "EPOCH": "2025-12-24T19:00:30.507264", "MEAN_MOTION": 2.00602347, "ECCENTRICITY": 0.6865959, "INCLINATION": 63.2255, "RA_OF_ASC_NODE": 173.58, "ARG_OF_PERICENTER": 268.0557, "MEAN_ANOMALY": 18.8416, "EPHEMERIS_TYPE": 0, "CLASSIFICATION_TYPE": "U", "NORAD_CAT_ID": 58584, "ELEMENT_SET_NO": 999, "REV_AT_EPOCH": 1482, "BSTAR": 0, "MEAN_MOTION_DOT": 2.24e-06, "MEAN_MOTION_DDOT": 0}, "tle": {"line1": "1 58584U 23198A   25358.79201976  .00000224  00000+0  00000+0 0  9993", "line2": "2 58584  63.2255 173.5800 6865959 268.0557  18.8416  2.00602347 14827"}}, "geometry": {"type": "Point", "coordinates": [-29.737036912812844, 37.90288020982012]}}, {"type": "Feature", "properties": {"norad_id": 58645, "name": "TIANMU-1 11", "group": "weather", "lat": -36.23861519238137, "lon": 25.017480221263703, "alt_km": 496.18576599732205, "timestamp": "2025-12-26T04:40:05.430390+00:00", "meta": {"OBJECT_NAME": "TIANMU-1 11", "OBJECT_ID": "2023-205A", "EPOCH": "2025-12-26T00:06:11.641824", "MEAN_MOTION": 15.24757483, "ECCENTRICITY": 0.0007581, "INCLINATION": 97.3599, "RA_OF_ASC_NODE": 19.3945, "ARG_OF_PERICENTER": 253.4731, "MEAN_ANOMALY": 106.5674, "EPHEMERIS_TYPE": 0, "CLASSIFICATION_TYPE": "U", "NORAD_CAT_ID": 58645, "ELEMENT_SET_NO": 999, "REV_AT_EPOCH": 11111, "BSTAR": 0.00026629025, "MEAN_MOTION_DOT": 6.531e-05, "MEAN_MOTION_DDOT": 0}, "tle": {"line1": "1 58645U 23205A   25360.00430141  .00006531  00000+0  26629-3 0  9991", "line2": "2 58645  97.3599  19.3945 0007581 253.4731 106.5674 15.24757483111119"}}, "geometry": {"type": "Point", "coordinates": [25.017480221263703, -36.23861519238137]}}, {"type": "Feature", "properties": {"norad_id": 58646, "name": "TIANMU-1 12", "group": "weather", "lat": 9.776440380639242, "lon": -159.34166816586546, "alt_km": 491.5374678088483, "timestamp": "2025-12-26T04:40:05.430413+00:00", "meta": {"OBJECT_NAME": "TIANMU-1 12", "OBJECT_ID": "2023-205B", "EPOCH": "2025-12-25T23:11:55.884192", "MEAN_MOTION": 15.24643998, "ECCENTRICITY": 0.00060462, "INCLINATION": 97.3587, "RA_OF_ASC_NODE": 19.1585, "ARG_OF_PERICENTER": 231.3818, "MEAN_ANOMALY": 128.6879, "EPHEMERIS_TYPE": 0, "CLASSIFICATION_TYPE": "U", "NORAD_CAT_ID": 58646, "ELEMENT_SET_NO": 999, "REV_AT_EPOCH": 11109, "BSTAR": 0.00025238473, "MEAN_MOTION_DOT": 6.163e-05, "MEAN_MOTION_DDOT": 0}, "tle": {"line1": "1 58646U 23205B   25359.96661903  .00006163  00000+0  25238-3 0  9993", "line2": "2 58646  97.3587  19.1585 0006046 231.3818 128.6879 15.24643998111095"}}, "geometry": {"type": "Point", "coordinates": [-159.34166816586546, 9.776440380639242]}}, {"type": "Feature", "properties": {"norad_id": 58647, "name": "TIANMU-1 13", "group": "weather", "lat": -11.811673207766153, "lon": 21.138423244475824, "alt_km": 499.7107489851742, "timestamp": "2025-12-26T04:40:05.430429+00:00", "meta": {"OBJECT_NAME": "TIANMU-1 13", "OBJECT_ID": "2023-205C", "EPOCH": "2025-12-25T23:59:42.134208", "MEAN_MOTION": 15.24688208, "ECCENTRICITY": 0.00067307, "INCLINATION": 97.3615, "RA_OF_ASC_NODE": 19.3978, "ARG_OF_PERICENTER": 209.6599, "MEAN_ANOMALY": 150.4258, "EPHEMERIS_TYPE": 0, "CLASSIFICATION_TYPE": "U", "NORAD_CAT_ID": 58647, "ELEMENT_SET_NO": 999, "REV_AT_EPOCH": 11109, "BSTAR": 0.00027322108, "MEAN_MOTION_DOT": 6.688e-05, "MEAN_MOTION_DDOT": 0}, "tle": {"line1": "1 58647U 23205C   25359.99979322  .00006688  00000+0  27322-3 0  9992", "line2": "2 58647  97.3615  19.3978 0006730 209.6599 150.4258 15.24688208111097"}}, "geometry": {"type": "Point", "coordinates": [21.138423244475824, -11.811673207766153]}}, {"type": "Feature", "properties": {"norad_id": 58648, "name": "TIANMU-1 14", "group": "weather", "lat": 76.21448068178142, "lon": -12.839484244654205, "alt_km": 488.29137320822156, "timestamp": "2025-12-26T04:40:05.430445+00:00", "meta": {"OBJECT_NAME": "TIANMU-1 14", "OBJECT_ID": "2023-205D", "EPOCH": "2025-12-25T23:36:00.525024", "MEAN_MOTION": 15.24670958, "ECCENTRICITY": 0.00074373, "INCLINATION": 97.3547, "RA_OF_ASC_NODE": 18.7181, "ARG_OF_PERICENTER": 215.6913, "MEAN_ANOMALY": 144.3828, "EPHEMERIS_TYPE": 0, "CLASSIFICATION_TYPE": "U", "NORAD_CAT_ID": 58648, "ELEMENT_SET_NO": 999, "REV_AT_EPOCH": 11109, "BSTAR": 0.00025802505, "MEAN_MOTION_DOT": 6.309e-05, "MEAN_MOTION_DDOT": 0}, "tle": {"line1": "1 58648U 23205D   25359.98333941  .00006309  00000+0  25803-3 0  9995", "line2": "2 58648  97.3547  18.7181 0007437 215.6913 144.3828 15.24670958111091"}}, "geometry": {"type": "Point", "coordinates": [-12.839484244654205, 76.21448068178142]}}, {"type": "Feature", "properties": {"norad_id": 58660, "name": "TIANMU-1 19", "group": "weather", "lat": 42.67105540229833, "lon": -61.87550300635481, "alt_km": 476.3773695677337, "timestamp": "2025-12-26T04:40:05.430462+00:00", "meta": {"OBJECT_NAME": "TIANMU-1 19", "OBJECT_ID": "2023-208A", "EPOCH": "2025-12-25T21:47:05.507232", "MEAN_MOTION": 15.28088574, "ECCENTRICITY": 0.00048523, "INCLINATION": 97.4387, "RA_OF_ASC_NODE": 110.9205, "ARG_OF_PERICENTER": 197.3025, "MEAN_ANOMALY": 162.805, "EPHEMERIS_TYPE": 0, "CLASSIFICATION_TYPE": "U", "NORAD_CAT_ID": 58660, "ELEMENT_SET_NO": 999, "REV_AT_EPOCH": 11083, "BSTAR": 0.00034302408, "MEAN_MOTION_DOT": 9.326e-05, "MEAN_MOTION_DDOT": 0}, "tle": {"line1": "1 58660U 23208A   25359.90770263  .00009326  00000+0  34302-3 0  9992", "line2": "2 58660  97.4387 110.9205 0004852 197.3025 162.8050 15.28088574110832"}}, "geometry": {"type": "Point", "coordinates": [-61.87550300635481, 42.67105540229833]}}, {"type": "Feature", "properties": {"norad_id": 58661, "name": "TIANMU-1 20", "group": "weather", "lat": -82.45257466052097, "lon": -148.48892858552028, "alt_km": 482.8191913354631, "timestamp": "2025-12-26T04:40:05.430478+00:00", "meta": {"OBJECT_NAME": "TIANMU-1 20", "OBJECT_ID": "2023-208B", "EPOCH": "2025-12-25T22:47:07.968192", "MEAN_MOTION": 15.29279245, "ECCENTRICITY": 0.0006872, "INCLINATION": 97.4324, "RA_OF_ASC_NODE": 111.4227, "ARG_OF_PERICENTER": 211.6149, "MEAN_ANOMALY": 148.4679, "EPHEMERIS_TYPE": 0, "CLASSIFICATION_TYPE": "U", "NORAD_CAT_ID": 58661, "ELEMENT_SET_NO": 999, "REV_AT_EPOCH": 11091, "BSTAR": 0.00034366187, "MEAN_MOTION_DOT": 9.694e-05, "MEAN_MOTION_DDOT": 0}, "tle": {"line1": "1 58661U 23208B   25359.94939778  .00009694  00000+0  34366-3 0  9993", "line2": "2 58661  97.4324 111.4227 0006872 211.6149 148.4679 15.29279245110919"}}, "geometry": {"type": "Point", "coordinates": [-148.48892858552028, -82.45257466052097]}}]}